{
    "links": {
        "self": "http://www.neowsapp.com/rest/v1/neo/3601675?api_key=iIulBulltgU6a56xZRHN4H3l9WmuAYTsLGpBGhQ2"
    },
    "id": "3601675",
    "neo_reference_id": "3601675",
    "name": "(2012 FW35)",
    "designation": "2012 FW35",
    "nasa_jpl_url": "http://ssd.jpl.nasa.gov/sbdb.cgi?sstr=3601675",
    "absolute_magnitude_h": 26.4,
    "estimated_diameter": {
        "kilometers": {
            "estimated_diameter_min": 0.0139493823,
            "estimated_diameter_max": 0.0311917671
        },
        "meters": {
            "estimated_diameter_min": 13.9493822934,
            "estimated_diameter_max": 31.1917670523
        },
        "miles": {
            "estimated_diameter_min": 0.0086677416,
            "estimated_diameter_max": 0.0193816595
        },
        "feet": {
            "estimated_diameter_min": 45.7656914036,
            "estimated_diameter_max": 102.3351970157
        }
    },
    "is_potentially_hazardous_asteroid": false,
    "close_approach_data": [
        {
            "close_approach_date": "2012-04-01",
            "close_approach_date_full": "2012-Apr-01 17:22",
            "epoch_date_close_approach": 1333300920000,
            "relative_velocity": {
                "kilometers_per_second": "12.3558645486",
                "kilometers_per_hour": "44481.1123749067",
                "miles_per_hour": "27638.8334087302"
            },
            "miss_distance": {
                "astronomical": "0.0214059145",
                "lunar": "8.3269007405",
                "kilometers": "3202279.214602115",
                "miles": "1989804.035514587"
            },
            "orbiting_body": "Earth"
        }
    ],
    "orbital_data": {
        "orbit_id": "5",
        "orbit_determination_date": "2017-04-06 08:50:18",
        "first_observation_date": "2012-03-24",
        "last_observation_date": "2012-03-27",
        "data_arc_in_days": 3,
        "observations_used": 15,
        "orbit_uncertainty": "9",
        "minimum_orbit_intersection": ".0116702",
        "jupiter_tisserand_invariant": "3.657",
        "epoch_osculation": "2456011.5",
        "eccentricity": ".5429888086320906",
        "semi_major_axis": "1.980475547521271",
        "inclination": "6.330340129809257",
        "ascending_node_longitude": "188.681331409569",
        "orbital_period": "1018.011429157519",
        "perihelion_distance": ".9050994894477085",
        "perihelion_argument": "49.66676612481069",
        "aphelion_distance": "3.055851605594833",
        "perihelion_time": "2456053.467494154316",
        "mean_anomaly": "345.1590095525185",
        "mean_motion": ".3536306073674703",
        "equinox": "J2000",
        "orbit_class": {
            "orbit_class_type": "APO",
            "orbit_class_description": "Near-Earth asteroid orbits which cross the Earth’s orbit similar to that of 1862 Apollo",
            "orbit_class_range": "a (semi-major axis) > 1.0 AU; q (perihelion) < 1.017 AU"
        }
    },
    "is_sentry_object": false
}